#aV2022  7 26  0  0  0.00000000     288 DD+AD WGS84 FIT  NGA
## 2220 172800.00000000   300.00000000 59786 0.0000000000000
+   32     1  2  3  4  5  6  7  8  9 10 11 12 13 14 15 16 17
+         18 19 20 21 22 23 24 25 26 27 28 29 30 31 32  0  0
+          0  0  0  0  0  0  0  0  0  0  0  0  0  0  0  0  0
+          0  0  0  0  0  0  0  0  0  0  0  0  0  0  0  0  0
+          0  0  0  0  0  0  0  0  0  0  0  0  0  0  0  0  0
++         2  2  2  2  2  2  2  2  2  2  2  2  2  2  2  2  2
++         2  2  2  2  2  2  2  2  2  2  2  2  2  2  2  0  0
++         0  0  0  0  0  0  0  0  0  0  0  0  0  0  0  0  0
++         0  0  0  0  0  0  0  0  0  0  0  0  0  0  0  0  0
++         0  0  0  0  0  0  0  0  0  0  0  0  0  0  0  0  0
%c cc cc ccc ccc cccc cccc cccc cccc ccccc ccccc ccccc ccccc
%c cc cc ccc ccc cccc cccc cccc cccc ccccc ccccc ccccc ccccc
%f  0.0000000  0.000000000  0.00000000000  0.000000000000000
%f  0.0000000  0.000000000  0.00000000000  0.000000000000000
%i    0    0    0    0      0      0      0      0         0
%i    0    0    0    0      0      0      0      0         0
/*      NGA, ST. LOUIS,MO.                                  
/*   EPHEMERIS COMPUTED FROM 2 DAYS OF DATA                 
/*   EPOCHA v8 SMOOTHER                                     
/*   G2139 IERS2010 SATIGS SATAPC                           
*  2022  7 26  2 15  0.00000000
P  1 -20475.080131 -11640.300874  12301.158154    314.265944                    
V  1  -9180.282046 -13119.592605 -26686.978197     -0.072831                    
P  2  15101.890078  20986.819231   6374.079370   -650.664564                    
V  2  -7007.263293  -3277.197016  30595.074440      0.008261                    
P  3 -14579.265177  -3163.417660  21847.914603   -316.687733                    
V  3   8907.820888 -26542.091942   2199.771714     -0.094094                    
P  4 -24844.822289  -2518.447738   9185.459085   -141.390803                    
V  4  11090.351803  -4262.602523  28765.114355      0.047227                    
P  5   8592.744136  16900.354127 -18718.120767    -90.497438                    
V  5  -8093.672809  22062.433012  16495.257231     -0.014012                    
P  6    833.135905  19369.589211  18180.000687    400.016283                    
V  6 -15832.533986 -16623.725163  18569.293476      0.152213                    
P  7 -16118.379293   3707.383019 -20464.006792    317.814215                    
V  7 -16978.176808 -20834.607361   8922.369274     -0.016488                    
P  8 -20361.233661  -6854.173007 -15880.167116    -77.741032                    
V  8  19134.549065  -5879.880367 -21706.219563     -0.016105                    
P  9 -25665.793363   6734.008797  -1646.875523   -315.230540                    
V  9  -2587.555473  -2475.691330  31508.049771      0.039972                    
P 10  11447.556530 -23245.041185  -4910.072702   -505.101618                    
V 10    362.528837   6954.633074 -31438.115161     -0.135360                    
P 11  10900.397451  22911.004788   7898.007598    -10.367075                    
V 11  -8168.394384  -6343.871158  29631.027428      0.000429                    
P 12  13350.345426   6710.360642  21697.107001   -252.178861                    
V 12 -11067.610226  25892.975655  -1082.345422     -0.059340                    
P 13  11507.838064  13215.109148 -20170.636853    355.578291                    
V 13 -25093.316049   2339.619751 -12707.504361      0.073309                    
P 14 -13299.287646  22051.035884  -6274.727984   -111.220527                    
V 14     32.554346  -8568.960341 -30264.357756      0.008153                    
P 15  21009.748002   5468.118385 -15924.815222    -42.480194                    
V 15 -17720.929884   8265.340372 -20798.718443      0.030334                    
P 16  -2485.479367 -21143.066902 -15859.112780   -517.360324                    
V 16   9904.821643 -17268.944591  22292.778370     -0.019920                    
P 17 -16862.664643  13202.615033  16176.160685    641.137158                    
V 17 -19698.346435   1190.009656 -22049.322964      0.043788                    
P 18  15463.687618  -4109.032995 -21232.501522    102.057547                    
V 18  16814.496951  20975.569743   8068.742292     -0.116876                    
P 19  -7773.135144  14557.985310  20502.855318    188.615040                    
V 19 -26605.141677   1342.645397 -11136.235987      0.050271                    
P 20   2027.844367  25133.840808  -8699.783971    500.155622                    
V 20  -4722.456648  10355.649395  28576.012299     -0.031468                    
P 21 -21065.922195 -16405.664355   4246.126077    160.934344                    
V 21  -1745.725342  -4673.401749 -30695.721536     -0.002041                    
P 22   4437.596323 -15549.428994  21462.138085    298.668239                    
V 22  26222.223605  -2228.634108  -7350.429907      0.065196                    
P 23  15371.684029 -16134.879715 -14375.842712    -34.481941                    
V 23  -3553.576544  18021.342162 -24156.405432     -0.015412                    
P 24  21808.248239  13257.000300   7778.255803    187.025570                    
V 24   5109.076933   9387.911517 -28755.857614     -0.104773                    
P 25  16621.980426  -8104.276280  18676.293941    353.456118                    
V 25  -6160.583360  23696.647890  15793.121314      0.043940                    
P 26   2492.311834 -25573.235168  -6132.997450    220.270928                    
V 26   5637.417451  -6492.069179  30093.525454      0.020809                    
P 27  -8062.839848 -13492.421326 -21677.053008    220.904375                    
V 27  26362.156957  -5478.938111  -6077.828552     -0.002063                    
P 28  -8656.107435  25063.250645   3518.527372    337.358019                    
V 28  -3692.433410   2514.526946 -31347.717331      0.027348                    
P 29  26175.015099  -4379.868956  -1909.629894   -536.960865                    
V 29   2585.485032   1826.811586  32011.026237     -0.034738                    
P 30  -8285.963624  14024.685629 -20850.677280   -534.757394                    
V 30 -17966.408089 -19939.662582  -6497.866442     -0.007473                    
P 31  -2368.676763 -20688.839670  16079.284984   -187.187844                    
V 31  15132.742084  14562.415589  21248.004698     -0.014928                    
P 32  13611.190184 -15069.328159  17166.784276   -186.129732                    
V 32  21528.985281  -2492.569268 -19612.438965     -0.102225                    
EOF
